     2.10           NAVIGATION DATA                         RINEX VERSION / TYPE
SpiderWeb 5.0                           2018 03 20 11:59    PGM / RUN BY / DATE 
   1.1176D-08  7.4506D-09 -5.9605D-08 -5.9605D-08           ION ALPHA           
   9.0112D+04  0.0000D+00 -1.9661D+05 -6.5536D+04           ION BETA            
    1.862645149231D-09 1.776356839400D-15   405504     1993 DELTA-UTC: A0,A1,T,W
    18                                                      LEAP SECONDS        
INFO: SERVIZIO DI POSIZIONAMENTO INTERREGIONALE GNSS        COMMENT
      REGIONE PIEMONTE - REGIONE LOMBARDIA                  COMMENT
      WEBSITE: WWW.SPINGNSS.IT - EMAIL: INFO.GNSS@CSI.IT    COMMENT
                                                            END OF HEADER       
 7 18 03 20 10 00  0.0 2.202736213803D-04-5.798028723802D-12 0.000000000000D+00
    7.800000000000D+01 7.475000000000D+01 4.801985920011D-09-1.325853360874D+00
    3.794208168983D-06 1.128225820139D-02 4.038214683533D-06 5.153677730560D+03
    2.088000000000D+05 2.887099981308D-07 1.659711630383D+00-1.732259988785D-07
    9.588800300707D-01 2.999062500000D+02-2.543055594119D+00-8.387492478334D-09
    2.339383131655D-10 1.000000000000D+00 1.993000000000D+03 0.000000000000D+00
    2.000000000000D+00 0.000000000000D+00-1.117587089539D-08 7.800000000000D+01
    2.015400000000D+05 0.000000000000D+00
 7 18 03 20 12 00  0.0 2.202321775258D-04-5.798028723802D-12 0.000000000000D+00
    7.900000000000D+01 7.012500000000D+01 4.974492817666D-09-2.756040099333D-01
    3.606081008911D-06 1.128280104604D-02 3.686174750328D-06 5.153679508209D+03
    2.160000000000D+05 9.126961231232D-08 1.659650537461D+00 1.247972249985D-07
    9.588799349810D-01 3.052187500000D+02-2.543124921807D+00-8.717505828315D-09
    1.485776224275D-10 1.000000000000D+00 1.993000000000D+03 0.000000000000D+00
    2.000000000000D+00 0.000000000000D+00-1.117587089539D-08 7.900000000000D+01
    2.087400000000D+05 0.000000000000D+00
 8 18 03 20 10 00  0.0-9.497348219156D-05-1.250555214938D-12 0.000000000000D+00
    7.700000000000D+01-6.968750000000D+00 3.965879624701D-09 1.857202883703D+00
   -3.613531589508D-07 3.428088268265D-03 1.283362507820D-05 5.153788095474D+03
    2.088000000000D+05 2.048909664154D-08-2.559973336159D+00 2.980232238770D-08
    9.690395689591D-01 1.345312500000D+02-4.970307505944D-01-7.750323050004D-09
    1.785788739106D-10 1.000000000000D+00 1.993000000000D+03 0.000000000000D+00
    2.000000000000D+00 0.000000000000D+00 5.587935447693D-09 7.700000000000D+01
    2.015400000000D+05 0.000000000000D+00
 8 18 03 20 12 00  0.0-9.498232975602D-05-1.250555214938D-12 0.000000000000D+00
    7.900000000000D+01-3.375000000000D+00 4.021953436961D-09 2.907670317694D+00
   -1.899898052216D-07 3.429030650295D-03 1.231580972672D-05 5.153785226822D+03
    2.160000000000D+05 1.490116119385D-08-2.560029137706D+00 4.097819328308D-08
    9.690408665674D-01 1.456562500000D+02-4.973897770235D-01-7.750680097729D-09
    1.814361300090D-10 1.000000000000D+00 1.993000000000D+03 0.000000000000D+00
    2.000000000000D+00 0.000000000000D+00 5.587935447693D-09 7.900000000000D+01
    2.087400000000D+05 0.000000000000D+00
 9 18 03 20 08 00  0.0 5.075638182461D-04 1.932676241267D-12 0.000000000000D+00
    5.500000000000D+01 3.393750000000D+01 4.367324724086D-09 6.782071084712D-01
    1.672655344009D-06 1.111347810365D-03 1.298822462559D-05 5.153670099258D+03
    2.016000000000D+05-2.048909664154D-08 5.815920983768D-01-5.215406417847D-08
    9.532172029226D-01 1.236875000000D+02 1.805860749669D+00-7.946402647008D-09
   -1.171477359563D-10 1.000000000000D+00 1.993000000000D+03 0.000000000000D+00
    2.000000000000D+00 0.000000000000D+00 1.396983861923D-09 5.500000000000D+01
    1.943400000000D+05 0.000000000000D+00
 9 18 03 20 10 00  0.0 5.075773224235D-04 1.932676241267D-12 0.000000000000D+00
    6.500000000000D+01 4.331250000000D+01 4.424470123610D-09 1.728474424046D+00
    2.078711986542D-06 1.110662822612D-03 1.282058656216D-05 5.153669475555D+03
    2.088000000000D+05-1.862645149231D-08 5.815348719474D-01-2.607703208923D-08
    9.532163163943D-01 1.236562500000D+02 1.805776639194D+00-7.951045155608D-09
   -1.235765795249D-10 1.000000000000D+00 1.993000000000D+03 0.000000000000D+00
    2.000000000000D+00 0.000000000000D+00 1.396983861923D-09 6.500000000000D+01
    2.015400000000D+05 0.000000000000D+00
10 18 03 20 02 00  0.0 1.717931590974D-04 3.637978807092D-12 0.000000000000D+00
    9.800000000000D+01-6.762500000000D+01 4.696266930893D-09-6.427918732845D-01
   -3.688037395477D-06 3.390293335542D-03 7.158145308495D-06 5.153663089752D+03
    1.800000000000D+05 1.266598701477D-07-4.555134310142D-01 1.490116119385D-08
    9.611337592390D-01 2.430625000000D+02-2.785139223748D+00-8.257844186232D-09
   -6.353836345951D-10 1.000000000000D+00 1.993000000000D+03 0.000000000000D+00
    2.000000000000D+00 0.000000000000D+00 1.862645149231D-09 9.800000000000D+01
    1.727400000000D+05 0.000000000000D+00
10 18 03 20 12 00  0.0 1.719240099192D-04 3.637978807092D-12 0.000000000000D+00
    4.900000000000D+01-6.571875000000D+01 4.843415890576D-09-1.675858171751D+00
   -3.507360816002D-06 3.391310456209D-03 6.685033440590D-06 5.153664436340D+03
    2.160000000000D+05 6.705522537231D-08-4.558126372602D-01-2.048909664154D-08
    9.611143741115D-01 2.496250000000D+02-2.784316521045D+00-8.272487583838D-09
   -3.285851035706D-10 1.000000000000D+00 1.993000000000D+03 0.000000000000D+00
    2.000000000000D+00 0.000000000000D+00 1.862645149231D-09 4.900000000000D+01
    2.087400000000D+05 0.000000000000D+00
11 18 03 20 06 00  0.0-7.374505512416D-04-2.273736754432D-13 0.000000000000D+00
    4.600000000000D+01 6.546875000000D+01 5.912031753041D-09 2.828047693572D+00
    3.280118107796D-06 1.673022017349D-02 8.231028914452D-06 5.153619726181D+03
    1.944000000000D+05 3.594905138016D-07-1.917856168007D+00-5.215406417847D-08
    9.042582721581D-01 1.852187500000D+02 1.745370431513D+00-8.531070072593D-09
    4.846630319300D-10 1.000000000000D+00 1.993000000000D+03 0.000000000000D+00
    2.000000000000D+00 0.000000000000D+00-1.210719347000D-08 4.600000000000D+01
    1.871400000000D+05 0.000000000000D+00
12 18 03 20 12 00  0.0 3.443183377385D-04-2.160049916711D-12 0.000000000000D+00
    1.070000000000D+02-8.062500000000D+01 4.129814712428D-09-8.669330891630D-01
   -4.177913069725D-06 7.097657769918D-03 6.049871444702D-06 5.153623037338D+03
    2.160000000000D+05 8.195638656616D-08 2.750920156695D+00 1.788139343262D-07
    9.873075039262D-01 2.760937500000D+02 9.385268004713D-01-8.129981132754D-09
   -4.800199682187D-10 1.000000000000D+00 1.993000000000D+03 0.000000000000D+00
    2.800000000000D+00 0.000000000000D+00-1.257285475731D-08 1.070000000000D+02
    2.087400000000D+05 0.000000000000D+00
12 18 03 20 11 59 44.0 3.443183377385D-04-2.160049916711D-12 0.000000000000D+00
    2.000000000000D+00-8.062500000000D+01 4.129814712428D-09-8.692674119512D-01
   -4.177913069725D-06 7.097653578967D-03 6.049871444702D-06 5.153623037338D+03
    2.159840000000D+05 8.195638656616D-08 2.750920305913D+00 1.788139343262D-07
    9.873075244071D-01 2.760937500000D+02 9.385273241959D-01-8.129981132754D-09
   -4.800199682187D-10 1.000000000000D+00 1.993000000000D+03 0.000000000000D+00
    2.000000000000D+00 0.000000000000D+00-1.257285475731D-08 2.000000000000D+00
    2.087100000000D+05 0.000000000000D+00
13 18 03 20 08 00  0.0-9.547593072057D-05 1.136868377216D-13 0.000000000000D+00
    4.600000000000D+01 4.834375000000D+01 4.159101951728D-09-9.446857645825D-01
    2.548098564148D-06 3.604501602240D-03 1.189298927784D-05 5.153665872574D+03
    2.016000000000D+05-5.029141902924D-08 7.122365520827D-01 2.793967723846D-08
    9.689211720731D-01 1.517812500000D+02 1.616602645692D+00-7.900329279664D-09
    3.000124801367D-11 1.000000000000D+00 1.993000000000D+03 0.000000000000D+00
    2.000000000000D+00 0.000000000000D+00-1.117587089539D-08 4.600000000000D+01
    1.943400000000D+05 0.000000000000D+00
13 18 03 20 10 00  0.0-9.547499939799D-05 1.136868377216D-13 0.000000000000D+00
    6.800000000000D+01 4.853125000000D+01 4.173030809795D-09 1.055012455675D-01
    2.695247530937D-06 3.605718025938D-03 1.254491508007D-05 5.153667985916D+03
    2.088000000000D+05-3.911554813385D-08 7.121795992189D-01 0.000000000000D+00
    9.689213988254D-01 1.410312500000D+02 1.616598806995D+00-7.909258137317D-09
    2.928693398907D-11 1.000000000000D+00 1.993000000000D+03 0.000000000000D+00
    2.000000000000D+00 0.000000000000D+00-1.117587089539D-08 6.800000000000D+01
    2.015400000000D+05 0.000000000000D+00
13 18 03 20 12 00  0.0-9.547406807542D-05 1.136868377216D-13 0.000000000000D+00
    6.900000000000D+01 5.946875000000D+01 4.239105066972D-09 1.156022348171D+00
    3.039836883545D-06 3.604984492995D-03 1.286901533604D-05 5.153665502548D+03
    2.160000000000D+05-6.891787052155D-08 7.121225424880D-01-6.332993507385D-08
    9.689218274604D-01 1.349687500000D+02 1.616260030278D+00-7.864255913148D-09
    5.857386797814D-11 1.000000000000D+00 1.993000000000D+03 0.000000000000D+00
    2.000000000000D+00 0.000000000000D+00-1.117587089539D-08 6.900000000000D+01
    2.087400000000D+05 0.000000000000D+00
14 18 03 20 04 00  0.0-9.532179683447D-05-4.547473508865D-13 0.000000000000D+00
    1.020000000000D+02 5.425000000000D+01 4.090527472300D-09-1.957350495710D+00
    2.739951014519D-06 9.479502448812D-03 1.279823482037D-05 5.153752923965D+03
    1.872000000000D+05 2.216547727585D-07 6.709207787263D-01-1.080334186554D-07
    9.614975357632D-01 1.333125000000D+02-1.959063514265D+00-7.674247903822D-09
    6.785996764513D-11 1.000000000000D+00 1.993000000000D+03 0.000000000000D+00
    2.000000000000D+00 0.000000000000D+00-9.778887033463D-09 1.020000000000D+02
    1.799400000000D+05 0.000000000000D+00
